{
  "type": "FeatureCollection",
  "features": [
    {
      "type": "Feature",
      "properties": {
        "norad_id": 41890,
        "name": "CYGFM07",
        "group": "weather",
        "lat": 9.177213537106574,
        "lon": -178.77374306705798,
        "alt_km": 410.9184915743517,
        "timestamp": "2025-12-13T18:50:04.071325+00:00",
        "meta_object_name": "CYGFM07",
        "meta_object_id": "2016-078G",
        "meta_epoch": "2025-12-13T05:45:54.414432",
        "meta_mean_motion": 15.50032511,
        "meta_eccentricity": 0.00099023,
        "meta_inclination": 34.9483,
        "meta_ra_of_asc_node": 18.1725,
        "meta_arg_of_pericenter": 219.9798,
        "meta_mean_anomaly": 140.0196,
        "meta_ephemeris_type": 0,
        "meta_classification_type": "U",
        "meta_norad_cat_id": 41890,
        "meta_element_set_no": 999,
        "meta_rev_at_epoch": 50003,
        "meta_bstar": 0.0005605892,
        "meta_mean_motion_dot": 0.00032594,
        "meta_mean_motion_ddot": 0,
        "tle_line1": "1 41890U 16078G   25347.24021313  .00032594  00000+0  56059-3 0  9991",
        "tle_line2": "2 41890  34.9483  18.1725 0009902 219.9798 140.0196 15.50032511500036"
      },
      "geometry": {
        "type": "Point",
        "coordinates": [
          -178.77374306705798,
          9.177213537106574
        ]
      }
    },
    {
      "type": "Feature",
      "properties": {
        "norad_id": 41891,
        "name": "CYGFM03",
        "group": "weather",
        "lat": -1.038324668396401,
        "lon": 15.033272940603839,
        "alt_km": 421.0603919970272,
        "timestamp": "2025-12-13T18:50:04.071336+00:00",
        "meta_object_name": "CYGFM03",
        "meta_object_id": "2016-078H",
        "meta_epoch": "2025-12-13T06:28:32.550816",
        "meta_mean_motion": 15.49933775,
        "meta_eccentricity": 0.00093551,
        "meta_inclination": 34.9439,
        "meta_ra_of_asc_node": 19.8967,
        "meta_arg_of_pericenter": 208.0713,
        "meta_mean_anomaly": 151.9505,
        "meta_ephemeris_type": 0,
        "meta_classification_type": "U",
        "meta_norad_cat_id": 41891,
        "meta_element_set_no": 999,
        "meta_rev_at_epoch": 50001,
        "meta_bstar": 0.00056195744,
        "meta_mean_motion_dot": 0.00032552,
        "meta_mean_motion_ddot": 0,
        "tle_line1": "1 41891U 16078H   25347.26982119  .00032552  00000+0  56196-3 0  9990",
        "tle_line2": "2 41891  34.9439  19.8967 0009355 208.0713 151.9505 15.49933775500015"
      },
      "geometry": {
        "type": "Point",
        "coordinates": [
          15.033272940603839,
          -1.038324668396401
        ]
      }
    },
    {
      "type": "Feature",
      "properties": {
        "norad_id": 43010,
        "name": "FENGYUN 3D",
        "group": "weather",
        "lat": -53.486880751245955,
        "lon": -33.54319407720754,
        "alt_km": 833.7829695649916,
        "timestamp": "2025-12-13T18:50:04.071347+00:00",
        "meta_object_name": "FENGYUN 3D",
        "meta_object_id": "2017-072A",
        "meta_epoch": "2025-12-13T07:15:01.351008",
        "meta_mean_motion": 14.19684981,
        "meta_eccentricity": 9.734e-05,
        "meta_inclination": 98.9893,
        "meta_ra_of_asc_node": 313.6207,
        "meta_arg_of_pericenter": 180.5175,
        "meta_mean_anomaly": 179.5999,
        "meta_ephemeris_type": 0,
        "meta_classification_type": "U",
        "meta_norad_cat_id": 43010,
        "meta_element_set_no": 999,
        "meta_rev_at_epoch": 41861,
        "meta_bstar": 0.00014905973,
        "meta_mean_motion_dot": 2.69e-06,
        "meta_mean_motion_ddot": 0,
        "tle_line1": "1 43010U 17072A   25347.30209897  .00000269  00000+0  14906-3 0  9993",
        "tle_line2": "2 43010  98.9893 313.6207 0000973 180.5175 179.5999 14.19684981418614"
      },
      "geometry": {
        "type": "Point",
        "coordinates": [
          -33.54319407720754,
          -53.486880751245955
        ]
      }
    },
    {
      "type": "Feature",
      "properties": {
        "norad_id": 43013,
        "name": "NOAA 20 (JPSS-1)",
        "group": "weather",
        "lat": 78.58586427067131,
        "lon": 153.8635824440895,
        "alt_km": 818.0851575429606,
        "timestamp": "2025-12-13T18:50:04.071359+00:00",
        "meta_object_name": "NOAA 20 (JPSS-1)",
        "meta_object_id": "2017-073A",
        "meta_epoch": "2025-12-13T06:32:10.398048",
        "meta_mean_motion": 14.19525992,
        "meta_eccentricity": 0.00021559,
        "meta_inclination": 98.7599,
        "meta_ra_of_asc_node": 283.5633,
        "meta_arg_of_pericenter": 86.4672,
        "meta_mean_anomaly": 273.675,
        "meta_ephemeris_type": 0,
        "meta_classification_type": "U",
        "meta_norad_cat_id": 43013,
        "meta_element_set_no": 999,
        "meta_rev_at_epoch": 41809,
        "meta_bstar": 9.5420532e-05,
        "meta_mean_motion_dot": 1.57e-06,
        "meta_mean_motion_ddot": 0,
        "tle_line1": "1 43013U 17073A   25347.27234257  .00000157  00000+0  95421-4 0  9999",
        "tle_line2": "2 43013  98.7599 283.5633 0002155  86.4672 273.6750 14.19525992418095"
      },
      "geometry": {
        "type": "Point",
        "coordinates": [
          153.8635824440895,
          78.58586427067131
        ]
      }
    },
    {
      "type": "Feature",
      "properties": {
        "norad_id": 43226,
        "name": "GOES 17",
        "group": "weather",
        "lat": -0.0709102357419178,
        "lon": -84.27282566551379,
        "alt_km": 35772.3670134487,
        "timestamp": "2025-12-13T18:50:04.071381+00:00",
        "meta_object_name": "GOES 17",
        "meta_object_id": "2018-022A",
        "meta_epoch": "2025-12-13T03:40:38.538048",
        "meta_mean_motion": 1.00271779,
        "meta_eccentricity": 0.00032553,
        "meta_inclination": 0.4611,
        "meta_ra_of_asc_node": 89.1069,
        "meta_arg_of_pericenter": 188.3307,
        "meta_mean_anomaly": 130.3195,
        "meta_ephemeris_type": 0,
        "meta_classification_type": "U",
        "meta_norad_cat_id": 43226,
        "meta_element_set_no": 999,
        "meta_rev_at_epoch": 2855,
        "meta_bstar": 0,
        "meta_mean_motion_dot": -1.69e-06,
        "meta_mean_motion_ddot": 0,
        "tle_line1": "1 43226U 18022A   25347.15322382 -.00000169  00000+0  00000+0 0  9992",
        "tle_line2": "2 43226   0.4611  89.1069 0003255 188.3307 130.3195  1.00271779 28555"
      },
      "geometry": {
        "type": "Point",
        "coordinates": [
          -84.27282566551379,
          -0.0709102357419178
        ]
      }
    },
    {
      "type": "Feature",
      "properties": {
        "norad_id": 43491,
        "name": "FENGYUN 2H",
        "group": "weather",
        "lat": 0.16441883184266326,
        "lon": 84.56786933955198,
        "alt_km": 35797.61648776503,
        "timestamp": "2025-12-13T18:50:04.071395+00:00",
        "meta_object_name": "FENGYUN 2H",
        "meta_object_id": "2018-050A",
        "meta_epoch": "2025-12-13T01:50:30.989184",
        "meta_mean_motion": 1.00271221,
        "meta_eccentricity": 0.00027996,
        "meta_inclination": 2.5521,
        "meta_ra_of_asc_node": 81.3266,
        "meta_arg_of_pericenter": 166.9203,
        "meta_mean_anomaly": 300.7552,
        "meta_ephemeris_type": 0,
        "meta_classification_type": "U",
        "meta_norad_cat_id": 43491,
        "meta_element_set_no": 999,
        "meta_rev_at_epoch": 2757,
        "meta_bstar": 0,
        "meta_mean_motion_dot": -1.17e-06,
        "meta_mean_motion_ddot": 0,
        "tle_line1": "1 43491U 18050A   25347.07674756 -.00000117  00000+0  00000+0 0  9996",
        "tle_line2": "2 43491   2.5521  81.3266 0002799 166.9203 300.7552  1.00271221 27577"
      },
      "geometry": {
        "type": "Point",
        "coordinates": [
          84.56786933955198,
          0.16441883184266326
        ]
      }
    },
    {
      "type": "Feature",
      "properties": {
        "norad_id": 43689,
        "name": "METOP-C",
        "group": "weather",
        "lat": -64.30862720291152,
        "lon": -153.0049994355673,
        "alt_km": 828.2839270988406,
        "timestamp": "2025-12-13T18:50:04.071406+00:00",
        "meta_object_name": "METOP-C",
        "meta_object_id": "2018-087A",
        "meta_epoch": "2025-12-13T07:32:46.274208",
        "meta_mean_motion": 14.21484914,
        "meta_eccentricity": 0.00012155,
        "meta_inclination": 98.6931,
        "meta_ra_of_asc_node": 45.0754,
        "meta_arg_of_pericenter": 38.4614,
        "meta_mean_anomaly": 321.6649,
        "meta_ephemeris_type": 0,
        "meta_classification_type": "U",
        "meta_norad_cat_id": 43689,
        "meta_element_set_no": 999,
        "meta_rev_at_epoch": 36842,
        "meta_bstar": 0.00014486376,
        "meta_mean_motion_dot": 2.73e-06,
        "meta_mean_motion_ddot": 0,
        "tle_line1": "1 43689U 18087A   25347.31442447  .00000273  00000+0  14486-3 0  9991",
        "tle_line2": "2 43689  98.6931  45.0754 0001215  38.4614 321.6649 14.21484914368420"
      },
      "geometry": {
        "type": "Point",
        "coordinates": [
          -153.0049994355673,
          -64.30862720291152
        ]
      }
    }
  ]
}